NORAD_CAT_ID,OBJECT_NAME,OBJECT_TYPE,EPOCH,MEAN_MOTION,ECCENTRICITY,INCLINATION,RA_OF_ASC_NODE,ARG_OF_PERICENTER,MEAN_ANOMALY,BSTAR,MEAN_MOTION_DOT,MEAN_MOTION_DDOT,TLE_LINE0,TLE_LINE1,TLE_LINE2,SEMIMAJOR_AXIS,PERIOD,APOGEE,PERIGEE,DECAYED
51775.0,STARLINK-3620,PAYLOAD,2024-04-26 09:35:28,15.08841434,0.0001497,53.2151,162.0393,83.3826,276.7337,8.9906e-05,1.143e-05,0.0,0 STARLINK-3620,1 51775U 22017H   24117.39963986  .00001143  00000-0  89906-4 0  9990,2 51775  53.2151 162.0393 0001497  83.3826 276.7337 15.08841434119609,6917.876,95.437,540.777,538.705,0.0
51775.0,STARLINK-3620,PAYLOAD,2024-04-27 12:37:00,15.08868893,0.000162,53.2153,156.9799,97.6667,262.451,0.00044173,6.755e-05,0.0,0 STARLINK-3620,1 51775U 22017H   24118.52569929  .00006755  00000-0  44173-3 0  9995,2 51775  53.2153 156.9799 0001620  97.6667 262.4510 15.08868893121226,6917.792,95.436,540.778,538.536,0.0
51775.0,STARLINK-3620,PAYLOAD,2024-04-28 02:55:29,15.08837302,6.41e-05,53.2148,154.3123,53.2548,306.8503,-9.6854e-05,-1.829e-05,0.0,0 STARLINK-3620,1 51775U 22017H   24119.12187046 -.00001829  00000-0 -96854-4 0  9991,2 51775  53.2148 154.3123 0000641  53.2548 306.8503 15.08837302121317,6917.889,95.438,540.197,539.31,0.0
51775.0,STARLINK-3620,PAYLOAD,2024-04-28 10:52:25,15.08819816,0.0001533,53.2157,152.8228,99.8766,260.24,-0.00053435,-8.777e-05,0.0,0 STARLINK-3620,1 51775U 22017H   24119.45307581 -.00008777  00000-0 -53435-3 0  9991,2 51775  53.2157 152.8228 0001533  99.8766 260.2400 15.08819816121369,6917.942,95.439,540.868,538.747,0.0
51775.0,STARLINK-3620,PAYLOAD,2024-04-28 18:49:21,15.0882001,0.0001401,53.2155,151.3338,100.2033,259.9117,-0.0004321,-7.154e-05,0.0,0 STARLINK-3620,1 51775U 22017H   24119.78427854 -.00007154  00000-0 -43210-3 0  9991,2 51775  53.2155 151.3338 0001401 100.2033 259.9117 15.08820010119962,6917.941,95.439,540.776,538.837,0.0
51775.0,STARLINK-3620,PAYLOAD,2024-04-29 10:43:13,15.08822915,0.0001392,53.2148,148.3585,100.2837,259.8312,-0.00016155,-2.857e-05,0.0,0 STARLINK-3620,1 51775U 22017H   24120.44668525 -.00002857  00000-0 -16155-3 0  9991,2 51775  53.2148 148.3585 0001392 100.2837 259.8312 15.08822915121511,6917.933,95.439,540.761,538.835,0.0
51775.0,STARLINK-3620,PAYLOAD,2024-04-29 18:40:09,15.0882549,0.0001415,53.2148,146.8731,104.5879,255.527,4.2822e-05,3.93e-06,0.0,0 STARLINK-3620,1 51775U 22017H   24120.77788935  .00000393  00000-0  42822-4 0  9997,2 51775  53.2148 146.8731 0001415 104.5879 255.5270 15.08825490120118,6917.925,95.438,540.769,538.811,0.0
51775.0,STARLINK-3620,PAYLOAD,2024-04-30 08:58:38,15.08842768,0.0001391,53.2146,144.1954,108.7925,251.3218,0.00068862,0.00010689,0.0,0 STARLINK-3620,1 51775U 22017H   24121.37405307  .00010689  00000-0  68862-3 0  9993,2 51775  53.2146 144.1954 0001391 108.7925 251.3218 15.08842768121658,6917.872,95.437,540.699,538.775,0.0
51775.0,STARLINK-3620,PAYLOAD,2024-04-30 18:30:56,15.08853138,0.0001357,53.2142,142.4119,109.1289,250.985,0.00070333,0.00010927,0.0,0 STARLINK-3620,1 51775U 22017H   24121.77149047  .00010927  00000-0  70333-3 0  9994,2 51775  53.2142 142.4119 0001357 109.1289 250.9850 15.08853138120264,6917.84,95.437,540.644,538.766,0.0
51775.0,STARLINK-3620,PAYLOAD,2024-05-01 10:24:47,15.08864316,0.0001371,53.2144,139.4368,108.9033,251.2107,0.00073045,0.00011364,0.0,0 STARLINK-3620,1 51775U 22017H   24122.43388322  .00011364  00000-0  73045-3 0  9998,2 51775  53.2144 139.4368 0001371 108.9033 251.2107 15.08864316121819,6917.806,95.436,540.619,538.723,0.0
51775.0,STARLINK-3620,PAYLOAD,2024-05-01 18:21:42,15.08865353,0.0001363,53.2145,137.9492,106.9862,253.128,0.00059082,9.134e-05,0.0,0 STARLINK-3620,1 51775U 22017H   24122.76507867  .00009134  00000-0  59082-3 0  9998,2 51775  53.2145 137.9492 0001363 106.9862 253.1280 15.08865353120410,6917.803,95.436,540.611,538.725,0.0
51775.0,STARLINK-3620,PAYLOAD,2024-05-02 05:29:24,15.08860847,0.0001514,53.2155,135.8698,106.6168,253.4991,0.00028567,4.264e-05,0.0,0 STARLINK-3620,1 51775U 22017H   24123.22875505  .00004264  00000-0  28567-3 0  9990,2 51775  53.2155 135.8698 0001514 106.6168 253.4991 15.08860847121933,6917.817,95.436,540.729,538.634,0.0
51775.0,STARLINK-3620,PAYLOAD,2024-05-02 07:04:47,15.08860737,0.0001486,53.2155,135.5724,106.7188,253.3968,0.00026663,3.96e-05,0.0,0 STARLINK-3620,1 51775U 22017H   24123.29499443  .00003960  00000-0  26663-3 0  9997,2 51775  53.2155 135.5724 0001486 106.7188 253.3968 15.08860737120492,6917.817,95.436,540.71,538.654,0.0
51775.0,STARLINK-3620,PAYLOAD,2024-05-03 05:20:11,15.08845898,0.0001425,53.215,131.4088,98.9153,261.2001,-7.7998e-05,-1.529e-05,0.0,0 STARLINK-3620,1 51775U 22017H   24124.22235132 -.00001529  00000-0 -77998-4 0  9993,2 51775  53.2150 131.4088 0001425  98.9153 261.2001 15.08845898122086,6917.862,95.437,540.713,538.742,0.0
51775.0,STARLINK-3620,PAYLOAD,2024-05-03 06:55:34,15.08846136,0.0001443,53.2146,131.1111,101.4708,258.6446,-6.9993e-05,-1.402e-05,0.0,0 STARLINK-3620,1 51775U 22017H   24124.28859076 -.00001402  00000-0 -69993-4 0  9994,2 51775  53.2146 131.1111 0001443 101.4708 258.6446 15.08846136120640,6917.862,95.437,540.725,538.728,0.0
51775.0,STARLINK-3620,PAYLOAD,2024-05-03 18:03:16,15.08843161,0.0001446,53.2141,129.0291,100.2411,259.8744,-5.9794e-05,-1.24e-05,0.0,0 STARLINK-3620,1 51775U 22017H   24124.75227083 -.00001240  00000-0 -59794-4 0  9991,2 51775  53.2141 129.0291 0001446 100.2411 259.8744 15.08843161120718,6917.871,95.437,540.736,538.735,0.0
51775.0,STARLINK-3620,PAYLOAD,2024-05-04 05:10:58,15.08833254,0.0001454,53.215,126.9477,101.827,258.2885,-0.00011748,-2.157e-05,0.0,0 STARLINK-3620,1 51775U 22017H   24125.21595805 -.00002157  00000-0 -11748-3 0  9997,2 51775  53.2150 126.9477 0001454 101.8270 258.2885 15.08833254122239,6917.901,95.438,540.772,538.76,0.0
51775.0,STARLINK-3620,PAYLOAD,2024-05-05 09:47:55,15.08836012,0.000139,53.2163,121.5972,92.3783,267.7368,8.5784e-05,1.077e-05,0.0,0 STARLINK-3620,1 51775U 22017H   24126.40828193  .00001077  00000-0  85784-4 0  9998,2 51775  53.2163 121.5972 0001390  92.3783 267.7368 15.08836012122412,6917.893,95.438,540.719,538.796,0.0
51775.0,STARLINK-3620,PAYLOAD,2024-05-06 06:27:56,15.08842653,0.0001327,53.2163,117.7305,89.8254,270.2891,0.00025694,3.804e-05,0.0,0 STARLINK-3620,1 51775U 22017H   24127.26939887  .00003804  00000-0  25694-3 0  9999,2 51775  53.2163 117.7305 0001327  89.8254 270.2891 15.08842653121094,6917.872,95.437,540.655,538.819,0.0
51775.0,STARLINK-3620,PAYLOAD,2024-05-06 16:00:14,15.08852006,0.0001355,53.2167,115.9461,91.305,268.8097,0.00029569,4.423e-05,0.0,0 STARLINK-3620,1 51775U 22017H   24127.66683353  .00004423  00000-0  29569-3 0  9990,2 51775  53.2167 115.9461 0001355  91.3050 268.8097 15.08852006122606,6917.844,95.437,540.646,538.771,0.0
51775.0,STARLINK-3620,PAYLOAD,2024-05-07 04:43:20,15.08842112,0.0001399,53.2155,113.5674,100.5883,259.5267,9.586e-05,1.238e-05,0.0,0 STARLINK-3620,1 51775U 22017H   24128.19676074  .00001238  00000-0  95860-4 0  9990,2 51775  53.2155 113.5674 0001399 100.5883 259.5267 15.08842112122689,6917.874,95.437,540.707,538.771,0.0
51775.0,STARLINK-3620,PAYLOAD,2024-05-07 06:18:43,15.0884298,0.0001374,53.2151,113.2703,101.3388,258.7759,5.6787e-05,6.16e-06,0.0,0 STARLINK-3620,1 51775U 22017H   24128.26299870  .00000616  00000-0  56787-4 0  9997,2 51775  53.2151 113.2703 0001374 101.3388 258.7759 15.08842980121248,6917.871,95.437,540.687,538.786,0.0
51775.0,STARLINK-3620,PAYLOAD,2024-05-07 15:51:01,15.08846856,0.0001394,53.2157,111.4859,93.6955,266.4197,0.00011503,1.544e-05,0.0,0 STARLINK-3620,1 51775U 22017H   24128.66043673  .00001544  00000-0  11503-3 0  9996,2 51775  53.2157 111.4859 0001394  93.6955 266.4197 15.08846856121306,6917.859,95.437,540.689,538.76,0.0
51775.0,STARLINK-3620,PAYLOAD,2024-05-08 04:34:07,15.08832827,0.0001678,53.2171,109.1074,97.2723,262.846,-0.00011332,-2.091e-05,0.0,0 STARLINK-3620,1 51775U 22017H   24129.19036413 -.00002091  00000-0 -11332-3 0  9999,2 51775  53.2171 109.1074 0001678  97.2723 262.8460 15.08832827122838,6917.902,95.438,540.928,538.606,0.0
51775.0,STARLINK-3620,PAYLOAD,2024-05-08 07:44:53,15.08833816,0.0001579,53.2169,108.5101,83.9968,276.1204,-6.2944e-05,-1.289e-05,0.0,0 STARLINK-3620,1 51775U 22017H   24129.32284587 -.00001289  00000-0 -62944-4 0  9995,2 51775  53.2169 108.5101 0001579  83.9968 276.1204 15.08833816121407,6917.899,95.438,540.857,538.672,0.0
51775.0,STARLINK-3620,PAYLOAD,2024-05-08 15:41:49,15.08842905,0.000142,53.2159,107.0245,90.9713,269.1442,3.5729e-05,2.81e-06,0.0,0 STARLINK-3620,1 51775U 22017H   24129.65404098  .00000281  00000-0  35729-4 0  9992,2 51775  53.2159 107.0245 0001420  90.9713 269.1442 15.08842905122901,6917.872,95.437,540.719,538.754,0.0
51775.0,STARLINK-3620,PAYLOAD,2024-05-09 06:00:17,15.08845808,0.0001368,53.2158,104.3488,91.9469,268.168,0.00025017,3.696e-05,0.0,0 STARLINK-3620,1 51775U 22017H   24130.25020252  .00003696  00000-0  25017-3 0  9997,2 51775  53.2158 104.3488 0001368  91.9469 268.1680 15.08845808121546,6917.863,95.437,540.674,538.781,0.0
51775.0,STARLINK-3620,PAYLOAD,2024-05-09 15:32:36,15.08851767,0.0001344,53.2154,102.5631,90.867,269.2476,0.0003716,5.633e-05,0.0,0 STARLINK-3620,1 51775U 22017H   24130.64763916  .00005633  00000-0  37160-3 0  9996,2 51775  53.2154 102.5631 0001344  90.8670 269.2476 15.08851767121601,6917.844,95.437,540.639,538.78,0.0
51775.0,STARLINK-3620,PAYLOAD,2024-05-10 04:15:41,15.08840237,0.0001391,53.2158,100.1847,88.3591,271.7561,0.00016618,2.358e-05,0.0,0 STARLINK-3620,1 51775U 22017H   24131.17756630  .00002358  00000-0  16618-3 0  9996,2 51775  53.2158 100.1847 0001391  88.3591 271.7561 15.08840237123137,6917.88,95.438,540.707,538.782,0.0
51775.0,STARLINK-3620,PAYLOAD,2024-05-10 07:26:27,15.08842447,0.0001413,53.2155,99.5894,89.4896,270.6258,0.00021647,3.159e-05,0.0,0 STARLINK-3620,1 51775U 22017H   24131.31004514  .00003159  00000-0  21647-3 0  9997,2 51775  53.2155  99.5894 0001413  89.4896 270.6258 15.08842447121709,6917.873,95.437,540.715,538.76,0.0
